[{"OBJECT_NAME":"STARLINK-34079","OBJECT_ID":"2025-102S","EPOCH":"2026-03-09T12:58:44.274144","MEAN_MOTION":14.9833129,"ECCENTRICITY":0.00033704,"INCLINATION":70.0012,"RA_OF_ASC_NODE":114.6772,"ARG_OF_PERICENTER":271.9361,"MEAN_ANOMALY":88.1413,"EPHEMERIS_TYPE":0,"CLASSIFICATION_TYPE":"U","NORAD_CAT_ID":64038,"ELEMENT_SET_NO":999,"REV_AT_EPOCH":4603,"BSTAR":0.00038216764,"MEAN_MOTION_DOT":4.47e-5,"MEAN_MOTION_DDOT":0},{"OBJECT_NAME":"DEORBITSAIL","OBJECT_ID":"2015-032E","EPOCH":"2026-03-09T13:39:47.460384","MEAN_MOTION":15.02284863,"ECCENTRICITY":0.0012066,"INCLINATION":97.5981,"RA_OF_ASC_NODE":287.3228,"ARG_OF_PERICENTER":211.0438,"MEAN_ANOMALY":149.0075,"EPHEMERIS_TYPE":0,"CLASSIFICATION_TYPE":"U","NORAD_CAT_ID":40719,"ELEMENT_SET_NO":999,"REV_AT_EPOCH":57628,"BSTAR":0.0007398,"MEAN_MOTION_DOT":9.73e-5,"MEAN_MOTION_DDOT":0}]
